<?xml version="1.0" encoding="UTF-8"?>
<ndm xmlns:xsi="http://www.w3.org/2001/XMLSchema-instance" xsi:noNamespaceSchemaLocation="https://sanaregistry.org/r/ndmxml_unqualified/ndmxml-2.0.0-master-2.0.xsd">
<omm id="CCSDS_OMM_VERS" version="2.0">
<header><CREATION_DATE/><ORIGINATOR/></header><body><segment><metadata><OBJECT_NAME>ONEWEB-0609</OBJECT_NAME><OBJECT_ID>2023-043AA</OBJECT_ID><CENTER_NAME>EARTH</CENTER_NAME><REF_FRAME>TEME</REF_FRAME><TIME_SYSTEM>UTC</TIME_SYSTEM><MEAN_ELEMENT_THEORY>SGP4</MEAN_ELEMENT_THEORY></metadata><data><meanElements><EPOCH>2025-04-05T16:50:53.050560</EPOCH><MEAN_MOTION>13.15549029</MEAN_MOTION><ECCENTRICITY>.0001701</ECCENTRICITY><INCLINATION>87.9117</INCLINATION><RA_OF_ASC_NODE>346.3895</RA_OF_ASC_NODE><ARG_OF_PERICENTER>76.4801</ARG_OF_PERICENTER><MEAN_ANOMALY>283.6519</MEAN_ANOMALY></meanElements><tleParameters><EPHEMERIS_TYPE>0</EPHEMERIS_TYPE><CLASSIFICATION_TYPE>U</CLASSIFICATION_TYPE><NORAD_CAT_ID>56070</NORAD_CAT_ID><ELEMENT_SET_NO>999</ELEMENT_SET_NO><REV_AT_EPOCH>9891</REV_AT_EPOCH><BSTAR>.69266E-4</BSTAR><MEAN_MOTION_DOT>.39E-6</MEAN_MOTION_DOT><MEAN_MOTION_DDOT>0</MEAN_MOTION_DDOT></tleParameters></data></segment></body></omm>
<omm id="CCSDS_OMM_VERS" version="2.0">
<header><CREATION_DATE/><ORIGINATOR/></header><body><segment><metadata><OBJECT_NAME>ONEWEB-0613</OBJECT_NAME><OBJECT_ID>2023-043AB</OBJECT_ID><CENTER_NAME>EARTH</CENTER_NAME><REF_FRAME>TEME</REF_FRAME><TIME_SYSTEM>UTC</TIME_SYSTEM><MEAN_ELEMENT_THEORY>SGP4</MEAN_ELEMENT_THEORY></metadata><data><meanElements><EPOCH>2025-04-06T03:41:10.252896</EPOCH><MEAN_MOTION>13.15549641</MEAN_MOTION><ECCENTRICITY>.0001857</ECCENTRICITY><INCLINATION>87.9119</INCLINATION><RA_OF_ASC_NODE>346.3079</RA_OF_ASC_NODE><ARG_OF_PERICENTER>70.7591</ARG_OF_PERICENTER><MEAN_ANOMALY>289.3740</MEAN_ANOMALY></meanElements><tleParameters><EPHEMERIS_TYPE>0</EPHEMERIS_TYPE><CLASSIFICATION_TYPE>U</CLASSIFICATION_TYPE><NORAD_CAT_ID>56071</NORAD_CAT_ID><ELEMENT_SET_NO>999</ELEMENT_SET_NO><REV_AT_EPOCH>9988</REV_AT_EPOCH><BSTAR>.37277E-3</BSTAR><MEAN_MOTION_DOT>.153E-5</MEAN_MOTION_DOT><MEAN_MOTION_DDOT>0</MEAN_MOTION_DDOT></tleParameters></data></segment></body></omm>
<omm id="CCSDS_OMM_VERS" version="2.0">
<header><CREATION_DATE/><ORIGINATOR/></header><body><segment><metadata><OBJECT_NAME>ONEWEB-0630</OBJECT_NAME><OBJECT_ID>2023-043AC</OBJECT_ID><CENTER_NAME>EARTH</CENTER_NAME><REF_FRAME>TEME</REF_FRAME><TIME_SYSTEM>UTC</TIME_SYSTEM><MEAN_ELEMENT_THEORY>SGP4</MEAN_ELEMENT_THEORY></metadata><data><meanElements><EPOCH>2025-04-06T10:52:25.153824</EPOCH><MEAN_MOTION>13.15548273</MEAN_MOTION><ECCENTRICITY>.0001783</ECCENTRICITY><INCLINATION>87.9116</INCLINATION><RA_OF_ASC_NODE>346.2289</RA_OF_ASC_NODE><ARG_OF_PERICENTER>68.7895</ARG_OF_PERICENTER><MEAN_ANOMALY>291.3426</MEAN_ANOMALY></meanElements><tleParameters><EPHEMERIS_TYPE>0</EPHEMERIS_TYPE><CLASSIFICATION_TYPE>U</CLASSIFICATION_TYPE><NORAD_CAT_ID>56072</NORAD_CAT_ID><ELEMENT_SET_NO>999</ELEMENT_SET_NO><REV_AT_EPOCH>9991</REV_AT_EPOCH><BSTAR>.89801E-3</BSTAR><MEAN_MOTION_DOT>.351E-5</MEAN_MOTION_DOT><MEAN_MOTION_DDOT>0</MEAN_MOTION_DDOT></tleParameters></data></segment></body></omm>
<omm id="CCSDS_OMM_VERS" version="2.0">
<header><CREATION_DATE/><ORIGINATOR/></header><body><segment><metadata><OBJECT_NAME>ONEWEB-0632</OBJECT_NAME><OBJECT_ID>2023-043AD</OBJECT_ID><CENTER_NAME>EARTH</CENTER_NAME><REF_FRAME>TEME</REF_FRAME><TIME_SYSTEM>UTC</TIME_SYSTEM><MEAN_ELEMENT_THEORY>SGP4</MEAN_ELEMENT_THEORY></metadata><data><meanElements><EPOCH>2025-04-05T16:30:21.328704</EPOCH><MEAN_MOTION>13.15549882</MEAN_MOTION><ECCENTRICITY>.0002059</ECCENTRICITY><INCLINATION>87.9118</INCLINATION><RA_OF_ASC_NODE>346.4003</RA_OF_ASC_NODE><ARG_OF_PERICENTER>79.5103</ARG_OF_PERICENTER><MEAN_ANOMALY>280.6259</MEAN_ANOMALY></meanElements><tleParameters><EPHEMERIS_TYPE>0</EPHEMERIS_TYPE><CLASSIFICATION_TYPE>U</CLASSIFICATION_TYPE><NORAD_CAT_ID>56073</NORAD_CAT_ID><ELEMENT_SET_NO>999</ELEMENT_SET_NO><REV_AT_EPOCH>9890</REV_AT_EPOCH><BSTAR>.41058E-3</BSTAR><MEAN_MOTION_DOT>.167E-5</MEAN_MOTION_DOT><MEAN_MOTION_DDOT>0</MEAN_MOTION_DDOT></tleParameters></data></segment></body></omm>
<omm id="CCSDS_OMM_VERS" version="2.0">
<header><CREATION_DATE/><ORIGINATOR/></header><body><segment><metadata><OBJECT_NAME>ONEWEB-0633</OBJECT_NAME><OBJECT_ID>2023-043AE</OBJECT_ID><CENTER_NAME>EARTH</CENTER_NAME><REF_FRAME>TEME</REF_FRAME><TIME_SYSTEM>UTC</TIME_SYSTEM><MEAN_ELEMENT_THEORY>SGP4</MEAN_ELEMENT_THEORY></metadata><data><meanElements><EPOCH>2025-04-06T03:18:21.521376</EPOCH><MEAN_MOTION>13.15549028</MEAN_MOTION><ECCENTRICITY>.0001674</ECCENTRICITY><INCLINATION>87.9112</INCLINATION><RA_OF_ASC_NODE>346.2817</RA_OF_ASC_NODE><ARG_OF_PERICENTER>65.2098</ARG_OF_PERICENTER><MEAN_ANOMALY>294.9206</MEAN_ANOMALY></meanElements><tleParameters><EPHEMERIS_TYPE>0</EPHEMERIS_TYPE><CLASSIFICATION_TYPE>U</CLASSIFICATION_TYPE><NORAD_CAT_ID>56074</NORAD_CAT_ID><ELEMENT_SET_NO>999</ELEMENT_SET_NO><REV_AT_EPOCH>9985</REV_AT_EPOCH><BSTAR>.1589E-3</BSTAR><MEAN_MOTION_DOT>.73E-6</MEAN_MOTION_DOT><MEAN_MOTION_DDOT>0</MEAN_MOTION_DDOT></tleParameters></data></segment></body></omm>
<omm id="CCSDS_OMM_VERS" version="2.0">
<header><CREATION_DATE/><ORIGINATOR/></header><body><segment><metadata><OBJECT_NAME>ONEWEB-0634</OBJECT_NAME><OBJECT_ID>2023-043AF</OBJECT_ID><CENTER_NAME>EARTH</CENTER_NAME><REF_FRAME>TEME</REF_FRAME><TIME_SYSTEM>UTC</TIME_SYSTEM><MEAN_ELEMENT_THEORY>SGP4</MEAN_ELEMENT_THEORY></metadata><data><meanElements><EPOCH>2025-04-06T04:47:19.719456</EPOCH><MEAN_MOTION>13.15548126</MEAN_MOTION><ECCENTRICITY>.0001406</ECCENTRICITY><INCLINATION>87.9116</INCLINATION><RA_OF_ASC_NODE>346.2995</RA_OF_ASC_NODE><ARG_OF_PERICENTER>79.4944</ARG_OF_PERICENTER><MEAN_ANOMALY>280.6344</MEAN_ANOMALY></meanElements><tleParameters><EPHEMERIS_TYPE>0</EPHEMERIS_TYPE><CLASSIFICATION_TYPE>U</CLASSIFICATION_TYPE><NORAD_CAT_ID>56075</NORAD_CAT_ID><ELEMENT_SET_NO>999</ELEMENT_SET_NO><REV_AT_EPOCH>9985</REV_AT_EPOCH><BSTAR>-.81074E-3</BSTAR><MEAN_MOTION_DOT>-.292E-5</MEAN_MOTION_DOT><MEAN_MOTION_DDOT>0</MEAN_MOTION_DDOT></tleParameters></data></segment></body></omm>
<omm id="CCSDS_OMM_VERS" version="2.0">
<header><CREATION_DATE/><ORIGINATOR/></header><body><segment><metadata><OBJECT_NAME>ONEWEB-0635</OBJECT_NAME><OBJECT_ID>2023-043AG</OBJECT_ID><CENTER_NAME>EARTH</CENTER_NAME><REF_FRAME>TEME</REF_FRAME><TIME_SYSTEM>UTC</TIME_SYSTEM><MEAN_ELEMENT_THEORY>SGP4</MEAN_ELEMENT_THEORY></metadata><data><meanElements><EPOCH>2025-04-06T04:40:29.873280</EPOCH><MEAN_MOTION>13.15548978</MEAN_MOTION><ECCENTRICITY>.0002127</ECCENTRICITY><INCLINATION>87.9089</INCLINATION><RA_OF_ASC_NODE>346.3057</RA_OF_ASC_NODE><ARG_OF_PERICENTER>82.7855</ARG_OF_PERICENTER><MEAN_ANOMALY>277.3517</MEAN_ANOMALY></meanElements><tleParameters><EPHEMERIS_TYPE>0</EPHEMERIS_TYPE><CLASSIFICATION_TYPE>U</CLASSIFICATION_TYPE><NORAD_CAT_ID>56076</NORAD_CAT_ID><ELEMENT_SET_NO>999</ELEMENT_SET_NO><REV_AT_EPOCH>9988</REV_AT_EPOCH><BSTAR>-.10641E-3</BSTAR><MEAN_MOTION_DOT>-.27E-6</MEAN_MOTION_DOT><MEAN_MOTION_DDOT>0</MEAN_MOTION_DDOT></tleParameters></data></segment></body></omm>
<omm id="CCSDS_OMM_VERS" version="2.0">
<header><CREATION_DATE/><ORIGINATOR/></header><body><segment><metadata><OBJECT_NAME>ONEWEB-0636</OBJECT_NAME><OBJECT_ID>2023-043AH</OBJECT_ID><CENTER_NAME>EARTH</CENTER_NAME><REF_FRAME>TEME</REF_FRAME><TIME_SYSTEM>UTC</TIME_SYSTEM><MEAN_ELEMENT_THEORY>SGP4</MEAN_ELEMENT_THEORY></metadata><data><meanElements><EPOCH>2025-04-06T04:29:04.646112</EPOCH><MEAN_MOTION>13.15547852</MEAN_MOTION><ECCENTRICITY>.0002087</ECCENTRICITY><INCLINATION>87.9099</INCLINATION><RA_OF_ASC_NODE>346.3103</RA_OF_ASC_NODE><ARG_OF_PERICENTER>80.6086</ARG_OF_PERICENTER><MEAN_ANOMALY>279.5280</MEAN_ANOMALY></meanElements><tleParameters><EPHEMERIS_TYPE>0</EPHEMERIS_TYPE><CLASSIFICATION_TYPE>U</CLASSIFICATION_TYPE><NORAD_CAT_ID>56077</NORAD_CAT_ID><ELEMENT_SET_NO>999</ELEMENT_SET_NO><REV_AT_EPOCH>9986</REV_AT_EPOCH><BSTAR>-.10229E-2</BSTAR><MEAN_MOTION_DOT>-.372E-5</MEAN_MOTION_DOT><MEAN_MOTION_DDOT>0</MEAN_MOTION_DDOT></tleParameters></data></segment></body></omm>
<omm id="CCSDS_OMM_VERS" version="2.0">
<header><CREATION_DATE/><ORIGINATOR/></header><body><segment><metadata><OBJECT_NAME>ONEWEB-0637</OBJECT_NAME><OBJECT_ID>2023-043AJ</OBJECT_ID><CENTER_NAME>EARTH</CENTER_NAME><REF_FRAME>TEME</REF_FRAME><TIME_SYSTEM>UTC</TIME_SYSTEM><MEAN_ELEMENT_THEORY>SGP4</MEAN_ELEMENT_THEORY></metadata><data><meanElements><EPOCH>2025-04-06T09:48:30.595680</EPOCH><MEAN_MOTION>13.15549023</MEAN_MOTION><ECCENTRICITY>.0001916</ECCENTRICITY><INCLINATION>87.9120</INCLINATION><RA_OF_ASC_NODE>346.2571</RA_OF_ASC_NODE><ARG_OF_PERICENTER>89.1811</ARG_OF_PERICENTER><MEAN_ANOMALY>270.9539</MEAN_ANOMALY></meanElements><tleParameters><EPHEMERIS_TYPE>0</EPHEMERIS_TYPE><CLASSIFICATION_TYPE>U</CLASSIFICATION_TYPE><NORAD_CAT_ID>56078</NORAD_CAT_ID><ELEMENT_SET_NO>999</ELEMENT_SET_NO><REV_AT_EPOCH>9991</REV_AT_EPOCH><BSTAR>-.11552E-2</BSTAR><MEAN_MOTION_DOT>-.422E-5</MEAN_MOTION_DOT><MEAN_MOTION_DDOT>0</MEAN_MOTION_DDOT></tleParameters></data></segment></body></omm>

</ndm>
